<?xml version="1.0" encoding="UTF-8"?>
<ndm xmlns:xsi="http://www.w3.org/2001/XMLSchema-instance" xsi:noNamespaceSchemaLocation="https://sanaregistry.org/r/ndmxml_unqualified/ndmxml-2.0.0-master-2.0.xsd">
<omm id="CCSDS_OMM_VERS" version="2.0">
<header><CREATION_DATE/><ORIGINATOR/></header><body><segment><metadata><OBJECT_NAME>ONEWEB-0257</OBJECT_NAME><OBJECT_ID>2021-060J</OBJECT_ID><CENTER_NAME>EARTH</CENTER_NAME><REF_FRAME>TEME</REF_FRAME><TIME_SYSTEM>UTC</TIME_SYSTEM><MEAN_ELEMENT_THEORY>SGP4</MEAN_ELEMENT_THEORY></metadata><data><meanElements><EPOCH>2024-01-28T22:30:07.555680</EPOCH><MEAN_MOTION>13.16593846</MEAN_MOTION><ECCENTRICITY>.0001968</ECCENTRICITY><INCLINATION>87.9040</INCLINATION><RA_OF_ASC_NODE>41.9601</RA_OF_ASC_NODE><ARG_OF_PERICENTER>98.3237</ARG_OF_PERICENTER><MEAN_ANOMALY>261.8117</MEAN_ANOMALY></meanElements><tleParameters><EPHEMERIS_TYPE>0</EPHEMERIS_TYPE><CLASSIFICATION_TYPE>U</CLASSIFICATION_TYPE><NORAD_CAT_ID>48975</NORAD_CAT_ID><ELEMENT_SET_NO>999</ELEMENT_SET_NO><REV_AT_EPOCH>12507</REV_AT_EPOCH><BSTAR>.31079E-3</BSTAR><MEAN_MOTION_DOT>.132E-5</MEAN_MOTION_DOT><MEAN_MOTION_DDOT>0</MEAN_MOTION_DDOT></tleParameters></data></segment></body></omm>
<omm id="CCSDS_OMM_VERS" version="2.0">
<header><CREATION_DATE/><ORIGINATOR/></header><body><segment><metadata><OBJECT_NAME>ONEWEB-0258</OBJECT_NAME><OBJECT_ID>2021-060K</OBJECT_ID><CENTER_NAME>EARTH</CENTER_NAME><REF_FRAME>TEME</REF_FRAME><TIME_SYSTEM>UTC</TIME_SYSTEM><MEAN_ELEMENT_THEORY>SGP4</MEAN_ELEMENT_THEORY></metadata><data><meanElements><EPOCH>2024-01-28T22:32:23.220960</EPOCH><MEAN_MOTION>13.16592897</MEAN_MOTION><ECCENTRICITY>.0001838</ECCENTRICITY><INCLINATION>87.9039</INCLINATION><RA_OF_ASC_NODE>41.9889</RA_OF_ASC_NODE><ARG_OF_PERICENTER>89.3163</ARG_OF_PERICENTER><MEAN_ANOMALY>270.8178</MEAN_ANOMALY></meanElements><tleParameters><EPHEMERIS_TYPE>0</EPHEMERIS_TYPE><CLASSIFICATION_TYPE>U</CLASSIFICATION_TYPE><NORAD_CAT_ID>48976</NORAD_CAT_ID><ELEMENT_SET_NO>999</ELEMENT_SET_NO><REV_AT_EPOCH>12508</REV_AT_EPOCH><BSTAR>.2549E-3</BSTAR><MEAN_MOTION_DOT>.11E-5</MEAN_MOTION_DOT><MEAN_MOTION_DDOT>0</MEAN_MOTION_DDOT></tleParameters></data></segment></body></omm>
<omm id="CCSDS_OMM_VERS" version="2.0">
<header><CREATION_DATE/><ORIGINATOR/></header><body><segment><metadata><OBJECT_NAME>ONEWEB-0259</OBJECT_NAME><OBJECT_ID>2021-060L</OBJECT_ID><CENTER_NAME>EARTH</CENTER_NAME><REF_FRAME>TEME</REF_FRAME><TIME_SYSTEM>UTC</TIME_SYSTEM><MEAN_ELEMENT_THEORY>SGP4</MEAN_ELEMENT_THEORY></metadata><data><meanElements><EPOCH>2024-01-28T22:23:15.886464</EPOCH><MEAN_MOTION>13.16596485</MEAN_MOTION><ECCENTRICITY>.0002005</ECCENTRICITY><INCLINATION>87.9038</INCLINATION><RA_OF_ASC_NODE>41.9751</RA_OF_ASC_NODE><ARG_OF_PERICENTER>83.1128</ARG_OF_PERICENTER><MEAN_ANOMALY>277.0231</MEAN_ANOMALY></meanElements><tleParameters><EPHEMERIS_TYPE>0</EPHEMERIS_TYPE><CLASSIFICATION_TYPE>U</CLASSIFICATION_TYPE><NORAD_CAT_ID>48977</NORAD_CAT_ID><ELEMENT_SET_NO>999</ELEMENT_SET_NO><REV_AT_EPOCH>12511</REV_AT_EPOCH><BSTAR>.2689E-3</BSTAR><MEAN_MOTION_DOT>.116E-5</MEAN_MOTION_DOT><MEAN_MOTION_DDOT>0</MEAN_MOTION_DDOT></tleParameters></data></segment></body></omm>
<omm id="CCSDS_OMM_VERS" version="2.0">
<header><CREATION_DATE/><ORIGINATOR/></header><body><segment><metadata><OBJECT_NAME>ONEWEB-0260</OBJECT_NAME><OBJECT_ID>2021-060M</OBJECT_ID><CENTER_NAME>EARTH</CENTER_NAME><REF_FRAME>TEME</REF_FRAME><TIME_SYSTEM>UTC</TIME_SYSTEM><MEAN_ELEMENT_THEORY>SGP4</MEAN_ELEMENT_THEORY></metadata><data><meanElements><EPOCH>2024-01-28T22:14:09.822912</EPOCH><MEAN_MOTION>13.16591898</MEAN_MOTION><ECCENTRICITY>.0002007</ECCENTRICITY><INCLINATION>87.9039</INCLINATION><RA_OF_ASC_NODE>42.0056</RA_OF_ASC_NODE><ARG_OF_PERICENTER>111.6728</ARG_OF_PERICENTER><MEAN_ANOMALY>248.4616</MEAN_ANOMALY></meanElements><tleParameters><EPHEMERIS_TYPE>0</EPHEMERIS_TYPE><CLASSIFICATION_TYPE>U</CLASSIFICATION_TYPE><NORAD_CAT_ID>48978</NORAD_CAT_ID><ELEMENT_SET_NO>999</ELEMENT_SET_NO><REV_AT_EPOCH>12509</REV_AT_EPOCH><BSTAR>.30296E-3</BSTAR><MEAN_MOTION_DOT>.129E-5</MEAN_MOTION_DOT><MEAN_MOTION_DDOT>0</MEAN_MOTION_DDOT></tleParameters></data></segment></body></omm>
<omm id="CCSDS_OMM_VERS" version="2.0">
<header><CREATION_DATE/><ORIGINATOR/></header><body><segment><metadata><OBJECT_NAME>ONEWEB-0261</OBJECT_NAME><OBJECT_ID>2021-060N</OBJECT_ID><CENTER_NAME>EARTH</CENTER_NAME><REF_FRAME>TEME</REF_FRAME><TIME_SYSTEM>UTC</TIME_SYSTEM><MEAN_ELEMENT_THEORY>SGP4</MEAN_ELEMENT_THEORY></metadata><data><meanElements><EPOCH>2024-01-28T14:08:31.276032</EPOCH><MEAN_MOTION>13.16593569</MEAN_MOTION><ECCENTRICITY>.0002431</ECCENTRICITY><INCLINATION>87.9043</INCLINATION><RA_OF_ASC_NODE>42.0620</RA_OF_ASC_NODE><ARG_OF_PERICENTER>93.5860</ARG_OF_PERICENTER><MEAN_ANOMALY>266.5549</MEAN_ANOMALY></meanElements><tleParameters><EPHEMERIS_TYPE>0</EPHEMERIS_TYPE><CLASSIFICATION_TYPE>U</CLASSIFICATION_TYPE><NORAD_CAT_ID>48979</NORAD_CAT_ID><ELEMENT_SET_NO>999</ELEMENT_SET_NO><REV_AT_EPOCH>12640</REV_AT_EPOCH><BSTAR>-.70395E-3</BSTAR><MEAN_MOTION_DOT>-.256E-5</MEAN_MOTION_DOT><MEAN_MOTION_DDOT>0</MEAN_MOTION_DDOT></tleParameters></data></segment></body></omm>
<omm id="CCSDS_OMM_VERS" version="2.0">
<header><CREATION_DATE/><ORIGINATOR/></header><body><segment><metadata><OBJECT_NAME>ONEWEB-0262</OBJECT_NAME><OBJECT_ID>2021-060P</OBJECT_ID><CENTER_NAME>EARTH</CENTER_NAME><REF_FRAME>TEME</REF_FRAME><TIME_SYSTEM>UTC</TIME_SYSTEM><MEAN_ELEMENT_THEORY>SGP4</MEAN_ELEMENT_THEORY></metadata><data><meanElements><EPOCH>2024-01-28T22:48:21.576672</EPOCH><MEAN_MOTION>13.16594573</MEAN_MOTION><ECCENTRICITY>.0002205</ECCENTRICITY><INCLINATION>87.9041</INCLINATION><RA_OF_ASC_NODE>41.9580</RA_OF_ASC_NODE><ARG_OF_PERICENTER>81.6014</ARG_OF_PERICENTER><MEAN_ANOMALY>278.5366</MEAN_ANOMALY></meanElements><tleParameters><EPHEMERIS_TYPE>0</EPHEMERIS_TYPE><CLASSIFICATION_TYPE>U</CLASSIFICATION_TYPE><NORAD_CAT_ID>48980</NORAD_CAT_ID><ELEMENT_SET_NO>999</ELEMENT_SET_NO><REV_AT_EPOCH>12511</REV_AT_EPOCH><BSTAR>.42308E-3</BSTAR><MEAN_MOTION_DOT>.175E-5</MEAN_MOTION_DOT><MEAN_MOTION_DDOT>0</MEAN_MOTION_DDOT></tleParameters></data></segment></body></omm>
<omm id="CCSDS_OMM_VERS" version="2.0">
<header><CREATION_DATE/><ORIGINATOR/></header><body><segment><metadata><OBJECT_NAME>ONEWEB-0263</OBJECT_NAME><OBJECT_ID>2021-060Q</OBJECT_ID><CENTER_NAME>EARTH</CENTER_NAME><REF_FRAME>TEME</REF_FRAME><TIME_SYSTEM>UTC</TIME_SYSTEM><MEAN_ELEMENT_THEORY>SGP4</MEAN_ELEMENT_THEORY></metadata><data><meanElements><EPOCH>2024-01-28T14:26:46.766688</EPOCH><MEAN_MOTION>13.16594776</MEAN_MOTION><ECCENTRICITY>.0002405</ECCENTRICITY><INCLINATION>87.9042</INCLINATION><RA_OF_ASC_NODE>42.0393</RA_OF_ASC_NODE><ARG_OF_PERICENTER>89.1862</ARG_OF_PERICENTER><MEAN_ANOMALY>270.9545</MEAN_ANOMALY></meanElements><tleParameters><EPHEMERIS_TYPE>0</EPHEMERIS_TYPE><CLASSIFICATION_TYPE>U</CLASSIFICATION_TYPE><NORAD_CAT_ID>48981</NORAD_CAT_ID><ELEMENT_SET_NO>999</ELEMENT_SET_NO><REV_AT_EPOCH>12633</REV_AT_EPOCH><BSTAR>-.19353E-3</BSTAR><MEAN_MOTION_DOT>-.61E-6</MEAN_MOTION_DOT><MEAN_MOTION_DDOT>0</MEAN_MOTION_DDOT></tleParameters></data></segment></body></omm>
<omm id="CCSDS_OMM_VERS" version="2.0">
<header><CREATION_DATE/><ORIGINATOR/></header><body><segment><metadata><OBJECT_NAME>ONEWEB-0264</OBJECT_NAME><OBJECT_ID>2021-060R</OBJECT_ID><CENTER_NAME>EARTH</CENTER_NAME><REF_FRAME>TEME</REF_FRAME><TIME_SYSTEM>UTC</TIME_SYSTEM><MEAN_ELEMENT_THEORY>SGP4</MEAN_ELEMENT_THEORY></metadata><data><meanElements><EPOCH>2024-01-28T22:38:05.303616</EPOCH><MEAN_MOTION>13.16595756</MEAN_MOTION><ECCENTRICITY>.0001907</ECCENTRICITY><INCLINATION>87.9041</INCLINATION><RA_OF_ASC_NODE>41.9841</RA_OF_ASC_NODE><ARG_OF_PERICENTER>92.2727</ARG_OF_PERICENTER><MEAN_ANOMALY>267.8623</MEAN_ANOMALY></meanElements><tleParameters><EPHEMERIS_TYPE>0</EPHEMERIS_TYPE><CLASSIFICATION_TYPE>U</CLASSIFICATION_TYPE><NORAD_CAT_ID>48982</NORAD_CAT_ID><ELEMENT_SET_NO>999</ELEMENT_SET_NO><REV_AT_EPOCH>12508</REV_AT_EPOCH><BSTAR>.25617E-3</BSTAR><MEAN_MOTION_DOT>.111E-5</MEAN_MOTION_DOT><MEAN_MOTION_DDOT>0</MEAN_MOTION_DDOT></tleParameters></data></segment></body></omm>
<omm id="CCSDS_OMM_VERS" version="2.0">
<header><CREATION_DATE/><ORIGINATOR/></header><body><segment><metadata><OBJECT_NAME>ONEWEB-0266</OBJECT_NAME><OBJECT_ID>2021-060T</OBJECT_ID><CENTER_NAME>EARTH</CENTER_NAME><REF_FRAME>TEME</REF_FRAME><TIME_SYSTEM>UTC</TIME_SYSTEM><MEAN_ELEMENT_THEORY>SGP4</MEAN_ELEMENT_THEORY></metadata><data><meanElements><EPOCH>2024-01-28T14:01:41.215584</EPOCH><MEAN_MOTION>13.16593975</MEAN_MOTION><ECCENTRICITY>.0001725</ECCENTRICITY><INCLINATION>87.9040</INCLINATION><RA_OF_ASC_NODE>42.0363</RA_OF_ASC_NODE><ARG_OF_PERICENTER>86.6165</ARG_OF_PERICENTER><MEAN_ANOMALY>273.5163</MEAN_ANOMALY></meanElements><tleParameters><EPHEMERIS_TYPE>0</EPHEMERIS_TYPE><CLASSIFICATION_TYPE>U</CLASSIFICATION_TYPE><NORAD_CAT_ID>48984</NORAD_CAT_ID><ELEMENT_SET_NO>999</ELEMENT_SET_NO><REV_AT_EPOCH>12632</REV_AT_EPOCH><BSTAR>.74098E-4</BSTAR><MEAN_MOTION_DOT>.41E-6</MEAN_MOTION_DOT><MEAN_MOTION_DDOT>0</MEAN_MOTION_DDOT></tleParameters></data></segment></body></omm>

</ndm>
